[{"OBJECT_NAME":"GOMX-1","OBJECT_ID":"2013-066Q","EPOCH":"2026-03-09T23:03:54.857376","MEAN_MOTION":14.69103088,"ECCENTRICITY":0.01302226,"INCLINATION":97.6568,"RA_OF_ASC_NODE":275.6493,"ARG_OF_PERICENTER":36.6495,"MEAN_ANOMALY":324.3532,"EPHEMERIS_TYPE":0,"CLASSIFICATION_TYPE":"U","NORAD_CAT_ID":39430,"ELEMENT_SET_NO":999,"REV_AT_EPOCH":65534,"BSTAR":0.00051711143,"MEAN_MOTION_DOT":3.409e-5,"MEAN_MOTION_DDOT":0},{"OBJECT_NAME":"CZ-2C R\/B","OBJECT_ID":"2020-036B","EPOCH":"2026-03-09T22:06:36.538272","MEAN_MOTION":14.47623883,"ECCENTRICITY":0.00493702,"INCLINATION":98.734,"RA_OF_ASC_NODE":91.2074,"ARG_OF_PERICENTER":235.7389,"MEAN_ANOMALY":123.9122,"EPHEMERIS_TYPE":0,"CLASSIFICATION_TYPE":"U","NORAD_CAT_ID":45722,"ELEMENT_SET_NO":999,"REV_AT_EPOCH":30336,"BSTAR":0.00010632744,"MEAN_MOTION_DOT":3.48e-6,"MEAN_MOTION_DDOT":0}]
